[{"CCSDS_OMM_VERS":"2.0","COMMENT":"GENERATED VIA SPACE-TRACK.ORG API","CREATION_DATE":"2020-12-25T04:33:57","ORIGINATOR":"18 SPCS","OBJECT_NAME":"GALILEO-FM3","OBJECT_ID":"2012-055A","CENTER_NAME":"EARTH","REF_FRAME":"TEME","TIME_SYSTEM":"UTC","MEAN_ELEMENT_THEORY":"SGP4","EPOCH":"2020-12-23T11:03:28.358496","MEAN_MOTION":"1.70473811","ECCENTRICITY":"0.00013700","INCLINATION":"55.0115","RA_OF_ASC_NODE":"156.5791","ARG_OF_PERICENTER":"230.2139","MEAN_ANOMALY":"129.7614","EPHEMERIS_TYPE":"0","CLASSIFICATION_TYPE":"U","NORAD_CAT_ID":"38857","ELEMENT_SET_NO":"999","REV_AT_EPOCH":"5103","BSTAR":"0.00000000000000","MEAN_MOTION_DOT":"0.00000075","MEAN_MOTION_DDOT":"0.0000000000000","SEMIMAJOR_AXIS":"29600.341","PERIOD":"844.704","APOAPSIS":"23226.262","PERIAPSIS":"23218.151","OBJECT_TYPE":"PAYLOAD","RCS_SIZE":"LARGE","COUNTRY_CODE":"ESA","LAUNCH_DATE":"2012-10-12","SITE":"FRGUI","DECAY_DATE":null,"FILE":"2909283","GP_ID":"168316970","TLE_LINE0":"0 GALILEO-FM3","TLE_LINE1":"1 38857U 12055A   20358.46074489  .00000075  00000-0  00000-0 0  9996","TLE_LINE2":"2 38857  55.0115 156.5791 0001370 230.2139 129.7614  1.70473811 51036"},{"CCSDS_OMM_VERS":"2.0","COMMENT":"GENERATED VIA SPACE-TRACK.ORG API","CREATION_DATE":"2020-12-25T18:44:12","ORIGINATOR":"18 SPCS","OBJECT_NAME":"GALILEO-FM3","OBJECT_ID":"2012-055A","CENTER_NAME":"EARTH","REF_FRAME":"TEME","TIME_SYSTEM":"UTC","MEAN_ELEMENT_THEORY":"SGP4","EPOCH":"2020-12-25T05:17:30.426720","MEAN_MOTION":"1.70473795","ECCENTRICITY":"0.00014100","INCLINATION":"55.0120","RA_OF_ASC_NODE":"156.5307","ARG_OF_PERICENTER":"231.3093","MEAN_ANOMALY":"128.6625","EPHEMERIS_TYPE":"0","CLASSIFICATION_TYPE":"U","NORAD_CAT_ID":"38857","ELEMENT_SET_NO":"999","REV_AT_EPOCH":"5106","BSTAR":"0.00000000000000","MEAN_MOTION_DOT":"0.00000076","MEAN_MOTION_DDOT":"0.0000000000000","SEMIMAJOR_AXIS":"29600.343","PERIOD":"844.704","APOAPSIS":"23226.382","PERIAPSIS":"23218.035","OBJECT_TYPE":"PAYLOAD","RCS_SIZE":"LARGE","COUNTRY_CODE":"ESA","LAUNCH_DATE":"2012-10-12","SITE":"FRGUI","DECAY_DATE":null,"FILE":"2909760","GP_ID":"168348937","TLE_LINE0":"0 GALILEO-FM3","TLE_LINE1":"1 38857U 12055A   20360.22049105  .00000076  00000-0  00000-0 0  9991","TLE_LINE2":"2 38857  55.0120 156.5307 0001410 231.3093 128.6625  1.70473795 51065"},{"CCSDS_OMM_VERS":"2.0","COMMENT":"GENERATED VIA SPACE-TRACK.ORG API","CREATION_DATE":"2020-12-25T22:26:09","ORIGINATOR":"18 SPCS","OBJECT_NAME":"GALILEO-FM3","OBJECT_ID":"2012-055A","CENTER_NAME":"EARTH","REF_FRAME":"TEME","TIME_SYSTEM":"UTC","MEAN_ELEMENT_THEORY":"SGP4","EPOCH":"2020-12-25T05:17:30.426720","MEAN_MOTION":"1.70473795","ECCENTRICITY":"0.00014100","INCLINATION":"55.0120","RA_OF_ASC_NODE":"156.5307","ARG_OF_PERICENTER":"231.3093","MEAN_ANOMALY":"128.6625","EPHEMERIS_TYPE":"0","CLASSIFICATION_TYPE":"U","NORAD_CAT_ID":"38857","ELEMENT_SET_NO":"999","REV_AT_EPOCH":"5106","BSTAR":"0.00000000000000","MEAN_MOTION_DOT":"0.00000076","MEAN_MOTION_DDOT":"0.0000000000000","SEMIMAJOR_AXIS":"29600.343","PERIOD":"844.704","APOAPSIS":"23226.382","PERIAPSIS":"23218.035","OBJECT_TYPE":"PAYLOAD","RCS_SIZE":"LARGE","COUNTRY_CODE":"ESA","LAUNCH_DATE":"2012-10-12","SITE":"FRGUI","DECAY_DATE":null,"FILE":"2909800","GP_ID":"168355573","TLE_LINE0":"0 GALILEO-FM3","TLE_LINE1":"1 38857U 12055A   20360.22049105  .00000076  00000-0  00000+0 0  9990","TLE_LINE2":"2 38857  55.0120 156.5307 0001410 231.3093 128.6625  1.70473795 51065"},{"CCSDS_OMM_VERS":"2.0","COMMENT":"GENERATED VIA SPACE-TRACK.ORG API","CREATION_DATE":"2020-12-26T04:08:36","ORIGINATOR":"18 SPCS","OBJECT_NAME":"GALILEO-FM3","OBJECT_ID":"2012-055A","CENTER_NAME":"EARTH","REF_FRAME":"TEME","TIME_SYSTEM":"UTC","MEAN_ELEMENT_THEORY":"SGP4","EPOCH":"2020-12-25T19:22:10.945632","MEAN_MOTION":"1.70473796","ECCENTRICITY":"0.00014200","INCLINATION":"55.0121","RA_OF_ASC_NODE":"156.5145","ARG_OF_PERICENTER":"231.4157","MEAN_ANOMALY":"128.5539","EPHEMERIS_TYPE":"0","CLASSIFICATION_TYPE":"U","NORAD_CAT_ID":"38857","ELEMENT_SET_NO":"999","REV_AT_EPOCH":"5107","BSTAR":"0.00000000000000","MEAN_MOTION_DOT":"0.00000075","MEAN_MOTION_DDOT":"0.0000000000000","SEMIMAJOR_AXIS":"29600.343","PERIOD":"844.704","APOAPSIS":"23226.411","PERIAPSIS":"23218.005","OBJECT_TYPE":"PAYLOAD","RCS_SIZE":"LARGE","COUNTRY_CODE":"ESA","LAUNCH_DATE":"2012-10-12","SITE":"FRGUI","DECAY_DATE":null,"FILE":"2909949","GP_ID":"168373959","TLE_LINE0":"0 GALILEO-FM3","TLE_LINE1":"1 38857U 12055A   20360.80707113  .00000075  00000-0  00000-0 0  9994","TLE_LINE2":"2 38857  55.0121 156.5145 0001420 231.4157 128.5539  1.70473796 51074"},{"CCSDS_OMM_VERS":"2.0","COMMENT":"GENERATED VIA SPACE-TRACK.ORG API","CREATION_DATE":"2020-12-26T20:10:57","ORIGINATOR":"18 SPCS","OBJECT_NAME":"GALILEO-FM3","OBJECT_ID":"2012-055A","CENTER_NAME":"EARTH","REF_FRAME":"TEME","TIME_SYSTEM":"UTC","MEAN_ELEMENT_THEORY":"SGP4","EPOCH":"2020-12-25T19:22:10.981920","MEAN_MOTION":"1.70473781","ECCENTRICITY":"0.00014180","INCLINATION":"55.0121","RA_OF_ASC_NODE":"156.5147","ARG_OF_PERICENTER":"231.6080","MEAN_ANOMALY":"128.3616","EPHEMERIS_TYPE":"0","CLASSIFICATION_TYPE":"U","NORAD_CAT_ID":"38857","ELEMENT_SET_NO":"999","REV_AT_EPOCH":"5107","BSTAR":"0.00000000000000","MEAN_MOTION_DOT":"0.00000075","MEAN_MOTION_DDOT":"0.0000000000000","SEMIMAJOR_AXIS":"29600.345","PERIOD":"844.704","APOAPSIS":"23226.407","PERIAPSIS":"23218.013","OBJECT_TYPE":"PAYLOAD","RCS_SIZE":"LARGE","COUNTRY_CODE":"ESA","LAUNCH_DATE":"2012-10-12","SITE":"FRGUI","DECAY_DATE":null,"FILE":"2910392","GP_ID":"168406838","TLE_LINE0":"0 GALILEO-FM3","TLE_LINE1":"1 38857U 12055A   20360.80707155  .00000075  00000-0  00000-0 0  9990","TLE_LINE2":"2 38857  55.0121 156.5147 0001418 231.6080 128.3616  1.70473781 51078"},{"CCSDS_OMM_VERS":"2.0","COMMENT":"GENERATED VIA SPACE-TRACK.ORG API","CREATION_DATE":"2020-12-28T17:37:40","ORIGINATOR":"18 SPCS","OBJECT_NAME":"GALILEO-FM3","OBJECT_ID":"2012-055A","CENTER_NAME":"EARTH","REF_FRAME":"TEME","TIME_SYSTEM":"UTC","MEAN_ELEMENT_THEORY":"SGP4","EPOCH":"2020-12-27T13:36:12.256128","MEAN_MOTION":"1.70473742","ECCENTRICITY":"0.00014450","INCLINATION":"55.0124","RA_OF_ASC_NODE":"156.4663","ARG_OF_PERICENTER":"232.4535","MEAN_ANOMALY":"127.5068","EPHEMERIS_TYPE":"0","CLASSIFICATION_TYPE":"U","NORAD_CAT_ID":"38857","ELEMENT_SET_NO":"999","REV_AT_EPOCH":"5110","BSTAR":"0.00000000000000","MEAN_MOTION_DOT":"0.00000073","MEAN_MOTION_DDOT":"0.0000000000000","SEMIMAJOR_AXIS":"29600.349","PERIOD":"844.704","APOAPSIS":"23226.492","PERIAPSIS":"23217.937","OBJECT_TYPE":"PAYLOAD","RCS_SIZE":"LARGE","COUNTRY_CODE":"ESA","LAUNCH_DATE":"2012-10-12","SITE":"FRGUI","DECAY_DATE":null,"FILE":"2911561","GP_ID":"168519442","TLE_LINE0":"0 GALILEO-FM3","TLE_LINE1":"1 38857U 12055A   20362.56680852  .00000073  00000-0  00000-0 0  9997","TLE_LINE2":"2 38857  55.0124 156.4663 0001445 232.4535 127.5068  1.70473742 51100"},{"CCSDS_OMM_VERS":"2.0","COMMENT":"GENERATED VIA SPACE-TRACK.ORG API","CREATION_DATE":"2020-12-28T14:26:10","ORIGINATOR":"18 SPCS","OBJECT_NAME":"GALILEO-FM3","OBJECT_ID":"2012-055A","CENTER_NAME":"EARTH","REF_FRAME":"TEME","TIME_SYSTEM":"UTC","MEAN_ELEMENT_THEORY":"SGP4","EPOCH":"2020-12-27T13:36:12.256128","MEAN_MOTION":"1.70473742","ECCENTRICITY":"0.00014450","INCLINATION":"55.0124","RA_OF_ASC_NODE":"156.4663","ARG_OF_PERICENTER":"232.4535","MEAN_ANOMALY":"127.5068","EPHEMERIS_TYPE":"0","CLASSIFICATION_TYPE":"U","NORAD_CAT_ID":"38857","ELEMENT_SET_NO":"999","REV_AT_EPOCH":"5110","BSTAR":"0.00000000000000","MEAN_MOTION_DOT":"0.00000073","MEAN_MOTION_DDOT":"0.0000000000000","SEMIMAJOR_AXIS":"29600.349","PERIOD":"844.704","APOAPSIS":"23226.492","PERIAPSIS":"23217.937","OBJECT_TYPE":"PAYLOAD","RCS_SIZE":"LARGE","COUNTRY_CODE":"ESA","LAUNCH_DATE":"2012-10-12","SITE":"FRGUI","DECAY_DATE":null,"FILE":"2911415","GP_ID":"168500246","TLE_LINE0":"0 GALILEO-FM3","TLE_LINE1":"1 38857U 12055A   20362.56680852  .00000073  00000-0  00000+0 0  9996","TLE_LINE2":"2 38857  55.0124 156.4663 0001445 232.4535 127.5068  1.70473742 51100"},{"CCSDS_OMM_VERS":"2.0","COMMENT":"GENERATED VIA SPACE-TRACK.ORG API","CREATION_DATE":"2020-12-31T02:56:27","ORIGINATOR":"18 SPCS","OBJECT_NAME":"GALILEO-FM3","OBJECT_ID":"2012-055A","CENTER_NAME":"EARTH","REF_FRAME":"TEME","TIME_SYSTEM":"UTC","MEAN_ELEMENT_THEORY":"SGP4","EPOCH":"2020-12-29T21:54:53.930880","MEAN_MOTION":"1.70473686","ECCENTRICITY":"0.00014690","INCLINATION":"55.0129","RA_OF_ASC_NODE":"156.4018","ARG_OF_PERICENTER":"232.8877","MEAN_ANOMALY":"127.0600","EPHEMERIS_TYPE":"0","CLASSIFICATION_TYPE":"U","NORAD_CAT_ID":"38857","ELEMENT_SET_NO":"999","REV_AT_EPOCH":"5114","BSTAR":"0.00000000000000","MEAN_MOTION_DOT":"0.00000068","MEAN_MOTION_DDOT":"0.0000000000000","SEMIMAJOR_AXIS":"29600.356","PERIOD":"844.705","APOAPSIS":"23226.569","PERIAPSIS":"23217.873","OBJECT_TYPE":"PAYLOAD","RCS_SIZE":"LARGE","COUNTRY_CODE":"ESA","LAUNCH_DATE":"2012-10-12","SITE":"FRGUI","DECAY_DATE":null,"FILE":"2912965","GP_ID":"168658062","TLE_LINE0":"0 GALILEO-FM3","TLE_LINE1":"1 38857U 12055A   20364.91312420  .00000068  00000-0  00000-0 0  9995","TLE_LINE2":"2 38857  55.0129 156.4018 0001469 232.8877 127.0600  1.70473686 51146"}]